ZHONGXING-6D            
1 52255U 22038A   26072.17849552  .00000000  00000+0  00000+0 0  9990
2 52255   0.0313 195.5655 0002052 117.1283  47.2889  1.00265840 14465
NILESAT 301             
1 52817U 22061A   26074.20888446  .00000000  00000+0  00000+0 0  9991
2 52817   0.0228  31.1303 0005760 326.9366 242.9544  1.00269246 13791
CMS-02 (GSAT 24)        
1 52903U 22067A   26073.94151665 -.00000165  00000+0  00000+0 0  9992
2 52903   0.0185 216.3743 0002142  87.8806 290.2338  1.00270611 13668
MEASAT 3D               
1 52904U 22067B   26074.08581727 -.00000242  00000+0  00000+0 0  9991
2 52904   0.0488 330.0721 0003048  10.3055 314.7232  1.00271467 13708
SES-22                  
1 52933U 22071A   26074.18279767  .00000103  00000+0  00000+0 0  9992
2 52933   0.0175  99.6203 0000987 255.9997 103.9659  1.00273792  6589
WFOV (USA 332)          
1 52940U 22073A   26073.98864176 -.00000361  00000+0  00000+0 0  9990
2 52940   3.4675  79.7366 0001290 224.9909 343.0202  1.00269197 13421
TIANLIAN 2-03           
1 53100U 22078A   26074.21235113  .00000071  00000+0  00000+0 0  9991
2 53100   0.4326  73.6250 0003292 257.9513 288.2328  1.00271155 13602
SBIRS GEO-6 (USA 336)   
1 53355U 22092A   26074.23783125 -.00000294  00000+0  00000+0 0  9990
2 53355   3.4201 315.9713 0002036  38.8403  42.6333  1.00271327 13298
EUTELSAT KONNECT VHTS   
1 53765U 22110A   26074.21079112  .00000016  00000+0  00000+0 0  9999
2 53765   0.0579 104.1049 0002831 226.3647 280.9193  1.00269379  5893
ZHONGXING-1E            
1 53813U 22112A   26071.80185729 -.00000150  00000+0  00000+0 0  9999
2 53813   0.0554 305.0129 0002568 354.3662 241.1166  1.00274038 12881
SES-20                  
1 53960U 22123A   26072.90628869 -.00000101  00000+0  00000+0 0  9999
2 53960   0.0192 104.9887 0001720 326.8603 322.8278  1.00270457 12575
SES-21                  
1 53961U 22123B   26074.25568464  .00000069  00000+0  00000+0 0  9996
2 53961   0.0288  67.4686 0001063 280.5175 145.9027  1.00270508  6275
GALAXY 33 (G-33)        
1 54026U 22128A   26072.39905773  .00000079  00000+0  00000+0 0  9996
2 54026   0.0138 105.0382 0001794 258.0759 178.5705  1.00271687 12780
GALAXY 34 (G-34)        
1 54027U 22128B   26074.18479101  .00000058  00000+0  00000+0 0  9994
2 54027   0.0194 121.2654 0001384 235.7436 113.2853  1.00271715 12977
ANGOSAT 2               
1 54033U 22131A   26071.79024390  .00000136  00000+0  00000+0 0  9992
2 54033   0.0191 162.9381 0000617 294.1226  20.8366  1.00271033 12519
EUTELSAT HOTBIRD 13F    
1 54048U 22134A   26074.27961642  .00000086  00000+0  00000+0 0  9991
2 54048   0.0604 291.4865 0002019  74.0949 280.9548  1.00271779 12433
LDPE-2                  
1 54219U 22144A   26073.94758336 -.00000359  00000+0  00000+0 0  9993
2 54219   5.4123  64.2151 0000169 261.7596 301.6951  1.00552421 10892
